name,address,latitude,longitude,Type,id,webUrl
L'Indus Bar,"Grand-Rue 64, Bulle 1630 Switzerland",46.62103,7.058252,1,7285961,https://www.tripadvisor.com/Restaurant_Review-g652156-d7285961-Reviews-L_Indus_Bar-Bulle_La_Gruyere_Canton_of_Fribourg.html
Restaurant Angelus Wine Bar,"Grand-Rue 65, Bulle 1630 Switzerland",46.620907,7.057957,1,19736848,https://www.tripadvisor.com/Restaurant_Review-g652156-d19736848-Reviews-Restaurant_Angelus_Wine_Bar-Bulle_La_Gruyere_Canton_of_Fribourg.html
FryBurger Gourmet Bulle,"Rue Nicolas-Glasson 3, Bulle 1630 Switzerland",46.61767,7.05555,1,11706477,https://www.tripadvisor.com/Restaurant_Review-g652156-d11706477-Reviews-FryBurger_Gourmet_Bulle-Bulle_La_Gruyere_Canton_of_Fribourg.html
king’s 46,"rue de Gruyeres 58, Bulle 1630 Switzerland",46.61488,7.05801,1,21405145,https://www.tripadvisor.com/Restaurant_Review-g652156-d21405145-Reviews-King_s_46-Bulle_La_Gruyere_Canton_of_Fribourg.html
Le Carioca Diner americain cafe retaurant,"ruelle des Ormeaux 17, La Tour-de-Treme 1635 Switzerland",46.60767,7.06644,1,10046839,https://www.tripadvisor.com/Restaurant_Review-g4277996-d10046839-Reviews-Le_Carioca_Diner_americain_cafe_retaurant-La_Tour_de_Treme_Canton_of_Fribourg.html
McDonald's La Tour-De-Treme,"route de l'Intyamon 107, La Tour-de-Treme 1635 Switzerland",46.601868,7.074258,1,13555128,https://www.tripadvisor.com/Restaurant_Review-g4277996-d13555128-Reviews-McDonald_s_La_Tour_De_Treme-La_Tour_de_Treme_Canton_of_Fribourg.html
Le Thai Break,"rue de Vevey 27, Bulle 1630 Switzerland",46.616158,7.054919,1,7337130,https://www.tripadvisor.com/Restaurant_Review-g652156-d7337130-Reviews-Le_Thai_Break-Bulle_La_Gruyere_Canton_of_Fribourg.html
Kalasin,"Rue Follieran, 19, Bulle 1630 Switzerland",46.622036,7.05779,1,17621567,https://www.tripadvisor.com/Restaurant_Review-g652156-d17621567-Reviews-Kalasin-Bulle_La_Gruyere_Canton_of_Fribourg.html
Tea-Room La Potiniere,"avenue de la Gare 5, Bulle 1630 Switzerland",46.61761,7.0562,1,10477040,https://www.tripadvisor.com/Restaurant_Review-g652156-d10477040-Reviews-Tea_Room_La_Potiniere-Bulle_La_Gruyere_Canton_of_Fribourg.html
Globull,"rue de l'Etang 21, Bulle 1630 Switzerland",46.62627,7.06709,1,4149323,https://www.tripadvisor.com/Restaurant_Review-g652156-d4149323-Reviews-Globull-Bulle_La_Gruyere_Canton_of_Fribourg.html
Caribou Bar Lounge,"Grand Rue 70, Chateau-d'Oex 1660 Switzerland",46.473667,7.130403,1,15189254,https://www.tripadvisor.com/Restaurant_Review-g580351-d15189254-Reviews-Caribou_Bar_Lounge-Chateau_d_Oex_Canton_of_Vaud.html
HR Giger Bar Museum,"Chateau St. Germain Rue du Château 3, Gruyeres 1663 Switzerland",46.584167,7.082228,1,4802733,https://www.tripadvisor.com/Restaurant_Review-g198820-d4802733-Reviews-HR_Giger_Bar_Museum-Gruyeres_La_Gruyere_Canton_of_Fribourg.html
Restaurant Rodizio Picanha,"route du Verdel 8, Bulle 1630 Switzerland",46.62396,7.066551,1,10557098,https://www.tripadvisor.com/Restaurant_Review-g652156-d10557098-Reviews-Restaurant_Rodizio_Picanha-Bulle_La_Gruyere_Canton_of_Fribourg.html
boule de neige,"rue de Gruyeres 7, Bulle 1630 Switzerland",46.61721,7.05737,1,14783703,https://www.tripadvisor.com/Restaurant_Review-g652156-d14783703-Reviews-Boule_de_neige-Bulle_La_Gruyere_Canton_of_Fribourg.html
Le Patissier de l'Hotel Cailler,"rue du Centre 25, Charmey 1637 Switzerland",46.61929,7.164656,1,11904490,https://www.tripadvisor.com/Restaurant_Review-g635662-d11904490-Reviews-Le_Patissier_de_l_Hotel_Cailler-Charmey_La_Gruyere_Canton_of_Fribourg.html
Early Beck Boulanger Confiseur,"Grand Rue 78, Chateau-d'Oex 1660 Switzerland",46.47398,7.13142,1,15013149,https://www.tripadvisor.com/Restaurant_Review-g580351-d15013149-Reviews-Early_Beck_Boulanger_Confiseur-Chateau_d_Oex_Canton_of_Vaud.html
Bao Bao Lin,"Grand-Rue 19, Bulle 1630 Switzerland",46.618637,7.057296,1,18840768,https://www.tripadvisor.com/Restaurant_Review-g652156-d18840768-Reviews-Bao_Bao_Lin-Bulle_La_Gruyere_Canton_of_Fribourg.html
Chanaan,"rue de Vevey 89, Bulle 1630 Switzerland",46.615,7.05155,1,2351023,https://www.tripadvisor.com/Restaurant_Review-g652156-d2351023-Reviews-Chanaan-Bulle_La_Gruyere_Canton_of_Fribourg.html
Hong Kong Fast Food,"rue de la Lechere 41, Bulle 1630 Switzerland",46.62374,7.054,1,3398443,https://www.tripadvisor.com/Restaurant_Review-g652156-d3398443-Reviews-Hong_Kong_Fast_Food-Bulle_La_Gruyere_Canton_of_Fribourg.html
Restaurant chinois Haha,"route du Perisset 9, Chateau-d'Oex 1660 Switzerland",46.47395,7.12618,1,4148966,https://www.tripadvisor.com/Restaurant_Review-g580351-d4148966-Reviews-Restaurant_chinois_Haha-Chateau_d_Oex_Canton_of_Vaud.html
Restaurant Le Jardin de Chine,"route de Gruyeres 26, Le Paquier-Montbarry 1661 Switzerland",46.59479,7.05954,1,3642324,https://www.tripadvisor.com/Restaurant_Review-g676120-d3642324-Reviews-Restaurant_Le_Jardin_de_Chine-Le_Paquier_Montbarry_La_Gruyere_Canton_of_Fribourg.html
Early Beck Boulanger Confiseur,"Grand-Rue 44, Bulle 1630 Switzerland",46.61982,7.05803,1,11800488,https://www.tripadvisor.com/Restaurant_Review-g652156-d11800488-Reviews-Early_Beck_Boulanger_Confiseur-Bulle_La_Gruyere_Canton_of_Fribourg.html
Centre de Tennis,"rue du Stade 50, Bulle 1630 Switzerland",46.61916,7.06715,1,7145560,https://www.tripadvisor.com/Restaurant_Review-g652156-d7145560-Reviews-Centre_de_Tennis-Bulle_La_Gruyere_Canton_of_Fribourg.html
Subway,"Place de la Gare 11630 Bulle Gara Cff Train Station, Bulle 1630 Switzerland",46.618084,7.05508,1,8095447,https://www.tripadvisor.com/Restaurant_Review-g652156-d8095447-Reviews-Subway-Bulle_La_Gruyere_Canton_of_Fribourg.html
Granby Cafe,"rue de l' Europe 12, Bulle 1630 Switzerland",46.62478,7.058658,1,10254331,https://www.tripadvisor.com/Restaurant_Review-g652156-d10254331-Reviews-Granby_Cafe-Bulle_La_Gruyere_Canton_of_Fribourg.html
Restaurant Paris-Bangkok,"route de Riaz 16 Hotel Le Rallye, Bulle 1630 Switzerland",46.62223,7.058591,1,4259454,https://www.tripadvisor.com/Restaurant_Review-g652156-d4259454-Reviews-Restaurant_Paris_Bangkok-Bulle_La_Gruyere_Canton_of_Fribourg.html
Marco Polo,"Grand-Rue 18, Bulle 1630 Switzerland",46.61846,7.057757,1,10139564,https://www.tripadvisor.com/Restaurant_Review-g652156-d10139564-Reviews-Marco_Polo-Bulle_La_Gruyere_Canton_of_Fribourg.html
Coop Restaurant Bulle Le Caro,"Route de Riaz 50, Bulle 1630 Switzerland",46.62508,7.05955,1,13985031,https://www.tripadvisor.com/Restaurant_Review-g652156-d13985031-Reviews-Coop_Restaurant_Bulle_Le_Caro-Bulle_La_Gruyere_Canton_of_Fribourg.html
Restaurant Nova,"rue du Centre 21 Romantik Hotel l'Etoile, Charmey 1637 Switzerland",46.61927,7.164097,1,3510795,https://www.tripadvisor.com/Restaurant_Review-g635662-d3510795-Reviews-Restaurant_Nova-Charmey_La_Gruyere_Canton_of_Fribourg.html
Les Quatre Saisons,"Gros-Plan 28 Hotel Cailler, Charmey 1637 Switzerland",46.62146,7.162761,1,4259043,https://www.tripadvisor.com/Restaurant_Review-g635662-d4259043-Reviews-Les_Quatre_Saisons-Charmey_La_Gruyere_Canton_of_Fribourg.html
"McCarthy's ""Lord of the Burgers""","route de Saanen 71, Chateau-d'Oex 1660 Switzerland",46.473793,7.155714,1,7233680,https://www.tripadvisor.com/Restaurant_Review-g580351-d7233680-Reviews-McCarthy_s_Lord_of_the_Burgers-Chateau_d_Oex_Canton_of_Vaud.html
Le Gruyerien,"Grand Rue 1, Bulle 1630 Switzerland",46.6177,7.057087,1,1100695,https://www.tripadvisor.com/Restaurant_Review-g652156-d1100695-Reviews-Le_Gruyerien-Bulle_La_Gruyere_Canton_of_Fribourg.html
Olympia,"rue de Vevey 30, Bulle 1630 Switzerland",46.616158,7.054417,1,8588606,https://www.tripadvisor.com/Restaurant_Review-g652156-d8588606-Reviews-Olympia-Bulle_La_Gruyere_Canton_of_Fribourg.html
Hallo Pizza,"route de la Pala 137 A, Bulle 1630 Switzerland",46.61867,7.048788,1,12956268,https://www.tripadvisor.com/Restaurant_Review-g652156-d12956268-Reviews-Hallo_Pizza-Bulle_La_Gruyere_Canton_of_Fribourg.html
Colibri chez l 'italien,"rue de Vevey 201, Bulle 1630 Switzerland",46.61333,7.04323,1,4150680,https://www.tripadvisor.com/Restaurant_Review-g652156-d4150680-Reviews-Colibri_chez_l_italien-Bulle_La_Gruyere_Canton_of_Fribourg.html
Osteria du Moleson,"rue de Gruyeres 33, Bulle 1630 Switzerland",46.616104,7.057488,1,3380417,https://www.tripadvisor.com/Restaurant_Review-g652156-d3380417-Reviews-Osteria_du_Moleson-Bulle_La_Gruyere_Canton_of_Fribourg.html
Le Tivoli,"rue du Vieux-Pont 73, Bulle 1630 Switzerland",46.613514,7.061009,1,4150681,https://www.tripadvisor.com/Restaurant_Review-g652156-d4150681-Reviews-Le_Tivoli-Bulle_La_Gruyere_Canton_of_Fribourg.html
Cafe des Alpes - Chez Massimo,"Grand Rue 7, Chateau-d'Oex 1660 Switzerland",46.471783,7.12605,1,13185762,https://www.tripadvisor.com/Restaurant_Review-g580351-d13185762-Reviews-Cafe_des_Alpes_Chez_Massimo-Chateau_d_Oex_Canton_of_Vaud.html
Kalyani Lounge Gruyeres,"rue du Bourg 22 Hôtel Et Restaurant Le Saint Georges, Gruyeres 1663 Switzerland",46.583416,7.081414,1,23570147,https://www.tripadvisor.com/Restaurant_Review-g198820-d23570147-Reviews-Kalyani_Lounge_Gruyeres-Gruyeres_La_Gruyere_Canton_of_Fribourg.html
Le Petit Marrakech,"Route de la Pala, Bulle 1630 Switzerland",46.61428,7.038333,1,15350687,https://www.tripadvisor.com/Restaurant_Review-g652156-d15350687-Reviews-Le_Petit_Marrakech-Bulle_La_Gruyere_Canton_of_Fribourg.html
Etna Pizza,"route de Riaz 34, Bulle 1630 Switzerland",46.623604,7.058744,1,8134819,https://www.tripadvisor.com/Restaurant_Review-g652156-d8134819-Reviews-Etna_Pizza-Bulle_La_Gruyere_Canton_of_Fribourg.html
Le Richemont,"Grand Rue 5, Chateau-d'Oex 1660 Switzerland",46.471493,7.12573,1,6155922,https://www.tripadvisor.com/Restaurant_Review-g580351-d6155922-Reviews-Le_Richemont-Chateau_d_Oex_Canton_of_Vaud.html
Le Relais Restaurant Pizzeria Ruby,"Grand Rue 62, Chateau-d'Oex 1660 Switzerland",46.473454,7.12972,1,19799938,https://www.tripadvisor.com/Restaurant_Review-g580351-d19799938-Reviews-Le_Relais_Restaurant_Pizzeria_Ruby-Chateau_d_Oex_Canton_of_Vaud.html
Le Pra,"Rue De La Porte D'en Bas 8, La Tour-de-Treme 1635 Switzerland",46.605644,7.070236,1,23767076,https://www.tripadvisor.com/Restaurant_Review-g4277996-d23767076-Reviews-Le_Pra-La_Tour_de_Treme_Canton_of_Fribourg.html
Le Code Bar,"route de Pra Riond 2, La Tour-de-Treme 1635 Switzerland",46.600487,7.075685,1,4275487,https://www.tripadvisor.com/Restaurant_Review-g4277996-d4275487-Reviews-Le_Code_Bar-La_Tour_de_Treme_Canton_of_Fribourg.html
Trattoria Rougemont,"rue des Allamans 9, Rougemont 1659 Switzerland",46.489765,7.211192,1,14985371,https://www.tripadvisor.com/Restaurant_Review-g1130644-d14985371-Reviews-Trattoria_Rougemont-Rougemont_Canton_of_Vaud.html
Casa Bairrada Steakhouse,"rue de l'Etang 3 3, Bulle 1630 Switzerland",46.62325,7.067777,1,23433467,https://www.tripadvisor.com/Restaurant_Review-g652156-d23433467-Reviews-Casa_Bairrada_Steakhouse-Bulle_La_Gruyere_Canton_of_Fribourg.html
Restaurant de La Croix-Blanche,"Route de l_Intyamon 336 Epagny, Gruyeres 1663 Switzerland",46.588345,7.084436,1,7317894,https://www.tripadvisor.com/Restaurant_Review-g198820-d7317894-Reviews-Restaurant_de_La_Croix_Blanche-Gruyeres_La_Gruyere_Canton_of_Fribourg.html
Abri des Marches,"route des Marches 16, Broc 1636 Switzerland",46.592533,7.101264,1,3546446,https://www.tripadvisor.com/Restaurant_Review-g1140517-d3546446-Reviews-Abri_des_Marches-Broc_La_Gruyere_Canton_of_Fribourg.html
Hotel-Restaurant de Ville de Broc,"Route de Monsalvant 1 Hotel de Ville, Broc 1636 Switzerland",46.60352,7.099524,1,13523464,https://www.tripadvisor.com/Restaurant_Review-g1140517-d13523464-Reviews-Hotel_Restaurant_de_Ville_de_Broc-Broc_La_Gruyere_Canton_of_Fribourg.html
L'Unique Tartare,"rue de Vevey 15, Bulle 1630 Switzerland",46.61663,7.05578,1,12334952,https://www.tripadvisor.com/Restaurant_Review-g652156-d12334952-Reviews-L_Unique_Tartare-Bulle_La_Gruyere_Canton_of_Fribourg.html
Hotel de Ville Restaurant,"Grand-Rue 7, Bulle 1630 Switzerland",46.61806,7.057175,1,7371074,https://www.tripadvisor.com/Restaurant_Review-g652156-d7371074-Reviews-Hotel_de_Ville_Restaurant-Bulle_La_Gruyere_Canton_of_Fribourg.html
Buffet de la Gare,"Place de la Gare, Chateau-d'Oex 1660 Switzerland",46.474625,7.132386,1,9709085,https://www.tripadvisor.com/Restaurant_Review-g580351-d9709085-Reviews-Buffet_de_la_Gare-Chateau_d_Oex_Canton_of_Vaud.html
Restaurant de l'Aerodrome,"route de l'Aerodrome 40 Aérodrome de la Gruyère, Gruyeres 1663 Switzerland",46.59452,7.093185,1,7619567,https://www.tripadvisor.com/Restaurant_Review-g198820-d7619567-Reviews-Restaurant_de_l_Aerodrome-Gruyeres_La_Gruyere_Canton_of_Fribourg.html
Ban Palay,"chemin de Bouleyres 83, Bulle 1630 Switzerland",46.61524,7.0672,1,8380087,https://www.tripadvisor.com/Restaurant_Review-g652156-d8380087-Reviews-Ban_Palay-Bulle_La_Gruyere_Canton_of_Fribourg.html
L'asiada Thai Take Away,"place du Tilleul 5, Bulle 1630 Switzerland",46.61765,7.05742,1,21501167,https://www.tripadvisor.com/Restaurant_Review-g652156-d21501167-Reviews-L_asiada_Thai_Take_Away-Bulle_La_Gruyere_Canton_of_Fribourg.html
le43,"Grand-Rue 43, Bulle 1630 Switzerland",46.61985,7.05756,1,12289307,https://www.tripadvisor.com/Restaurant_Review-g652156-d12289307-Reviews-Le43-Bulle_La_Gruyere_Canton_of_Fribourg.html
Cafe Restaurant de l'Union,"place du Tilleul 9, Bulle 1630 Switzerland",46.61753,7.05717,1,6713349,https://www.tripadvisor.com/Restaurant_Review-g652156-d6713349-Reviews-Cafe_Restaurant_de_l_Union-Bulle_La_Gruyere_Canton_of_Fribourg.html
Monsieur Blanc,"route de Riaz 34, Bulle 1630 Switzerland",46.62363,7.05889,1,12545988,https://www.tripadvisor.com/Restaurant_Review-g652156-d12545988-Reviews-Monsieur_Blanc-Bulle_La_Gruyere_Canton_of_Fribourg.html
Burger King,"route de Riaz 100, Bulle 1630 Switzerland",46.629967,7.061218,1,23565669,https://www.tripadvisor.com/Restaurant_Review-g652156-d23565669-Reviews-Burger_King-Bulle_La_Gruyere_Canton_of_Fribourg.html
Pizzaman,"rue de l'Ancien-Comte 35, La Tour-de-Treme 1635 Switzerland",46.609226,7.065305,1,21202003,https://www.tripadvisor.com/Restaurant_Review-g4277996-d21202003-Reviews-Pizzaman-La_Tour_de_Treme_Canton_of_Fribourg.html
Le Sommet,Moleson 1663 Switzerland,46.54723,7.017976,1,8424780,https://www.tripadvisor.com/Restaurant_Review-g635661-d8424780-Reviews-Le_Sommet-Moleson_La_Gruyere_Canton_of_Fribourg.html
Restaurant La Pierre a Catillon,"place de l' Aigle 6, Moleson 1663 Switzerland",46.561367,7.037933,1,5967382,https://www.tripadvisor.com/Restaurant_Review-g635661-d5967382-Reviews-Restaurant_La_Pierre_a_Catillon-Moleson_La_Gruyere_Canton_of_Fribourg.html
Le Passage Cafe,"Grand-Rue 26, Bulle 1630 Switzerland",46.618847,7.05782,2,23440988,https://www.tripadvisor.com/Restaurant_Review-g652156-d23440988-Reviews-Le_Passage_Cafe-Bulle_La_Gruyere_Canton_of_Fribourg.html
Espace Gruyere SA,"rue de Vevey 136, Bulle 1630 Switzerland",46.61499,7.04904,2,4149249,https://www.tripadvisor.com/Restaurant_Review-g652156-d4149249-Reviews-Espace_Gruyere_SA-Bulle_La_Gruyere_Canton_of_Fribourg.html
Restaurant Gastronomique Le Sommet,"Rue de Montsalvens 4, Broc 1636 Switzerland",46.603024,7.100199,2,17990955,https://www.tripadvisor.com/Restaurant_Review-g1140517-d17990955-Reviews-Restaurant_Gastronomique_Le_Sommet-Broc_La_Gruyere_Canton_of_Fribourg.html
l'Oscar,"rue de l' Industrie 31, Bulle 1630 Switzerland",46.624985,7.037271,2,4149758,https://www.tripadvisor.com/Restaurant_Review-g652156-d4149758-Reviews-L_Oscar-Bulle_La_Gruyere_Canton_of_Fribourg.html
Restaurant BulCentre,"rue de la Sionge 37, Bulle 1630 Switzerland",46.619453,7.056638,2,8660026,https://www.tripadvisor.com/Restaurant_Review-g652156-d8660026-Reviews-Restaurant_BulCentre-Bulle_La_Gruyere_Canton_of_Fribourg.html
Le Moderne,"rue Victor-Tissot 2 Rue Victor Tissot 2, Bulle 1630 Switzerland",46.616383,7.057408,2,11918586,https://www.tripadvisor.com/Restaurant_Review-g652156-d11918586-Reviews-Le_Moderne-Bulle_La_Gruyere_Canton_of_Fribourg.html
Restaurant Le Roc by Edgard,"chemin des Palettes 14 Hotel de Rougemont, Rougemont 1659 Switzerland",46.488075,7.202293,2,7390476,https://www.tripadvisor.com/Restaurant_Review-g1130644-d7390476-Reviews-Restaurant_Le_Roc_by_Edgard-Rougemont_Canton_of_Vaud.html
La Table du Valrose,"Place De La Gare 2, 1659 Rougemont, Suisse, Rougemont 1659 Switzerland",46.488514,7.208384,2,23630803,https://www.tripadvisor.com/Restaurant_Review-g1130644-d23630803-Reviews-La_Table_du_Valrose-Rougemont_Canton_of_Vaud.html
Restaurant du Cheval Blanc,"rue de Gruyeres 16, Bulle 1630 Switzerland",46.616997,7.056994,2,4454890,https://www.tripadvisor.com/Restaurant_Review-g652156-d4454890-Reviews-Restaurant_du_Cheval_Blanc-Bulle_La_Gruyere_Canton_of_Fribourg.html
Cafe le Plaisance,"rue de Saletta 10, Bulle 1632 Switzerland",46.64068,7.06081,2,17234222,https://www.tripadvisor.com/Restaurant_Review-g652156-d17234222-Reviews-Cafe_le_Plaisance-Bulle_La_Gruyere_Canton_of_Fribourg.html
Restaurant de la Tour,"route de la Jogne 41, Chatel-sur-Montsalvens 1653 Switzerland",46.613888,7.129792,2,2367885,https://www.tripadvisor.com/Restaurant_Review-g2374948-d2367885-Reviews-Restaurant_de_la_Tour-Chatel_sur_Montsalvens_La_Gruyere_Canton_of_Fribourg.html
Restaurant de la Tour,"rue de l' Ancien Comte 57, La Tour-de-Treme 1635 Switzerland",46.608395,7.066297,2,4298730,https://www.tripadvisor.com/Restaurant_Review-g4277996-d4298730-Reviews-Restaurant_de_la_Tour-La_Tour_de_Treme_Canton_of_Fribourg.html
Les Jardins de la Tour,"La Placette, Rossiniere 1658 Switzerland",46.466667,7.081236,2,4149715,https://www.tripadvisor.com/Restaurant_Review-g1068944-d4149715-Reviews-Les_Jardins_de_la_Tour-Rossiniere_Canton_of_Vaud.html
Le Globe,"route de la Pala 100, Bulle 1630 Switzerland",46.61639,7.03793,2,21300117,https://www.tripadvisor.com/Restaurant_Review-g652156-d21300117-Reviews-Le_Globe-Bulle_La_Gruyere_Canton_of_Fribourg.html
Restaurant du Chamois,"route de Botterens 74 Auberge du Chamois, Botterens 1652 Switzerland",46.61746,7.112486,2,4313263,https://www.tripadvisor.com/Restaurant_Review-g4346337-d4313263-Reviews-Restaurant_du_Chamois-Botterens_Canton_of_Fribourg.html
Buvette au Creux du Feu,"Route du Moleson, Broc 1636 Switzerland",46.606895,7.137318,2,4844065,https://www.tripadvisor.com/Restaurant_Review-g1140517-d4844065-Reviews-Buvette_au_Creux_du_Feu-Broc_La_Gruyere_Canton_of_Fribourg.html
La Brasserie de L'Etoile,"rue du Centre 21, Charmey 1637 Switzerland",46.619408,7.163988,2,19851066,https://www.tripadvisor.com/Restaurant_Review-g635662-d19851066-Reviews-La_Brasserie_de_L_Etoile-Charmey_La_Gruyere_Canton_of_Fribourg.html
Le Bistro Hotel Cailler,"Gros-Plan 28, Charmey 1637 Switzerland",46.6213,7.162729,2,3727313,https://www.tripadvisor.com/Restaurant_Review-g635662-d3727313-Reviews-Le_Bistro_Hotel_Cailler-Charmey_La_Gruyere_Canton_of_Fribourg.html
Cafe des Bossons,"Grand Rue 105, Chateau-d'Oex 1660 Switzerland",46.47605,7.13501,2,10847125,https://www.tripadvisor.com/Restaurant_Review-g580351-d10847125-Reviews-Cafe_des_Bossons-Chateau_d_Oex_Canton_of_Vaud.html
Le Chalet Restaurant,"route de la Gare 2, Chateau-d'Oex 1660 Switzerland",46.473614,7.133575,2,5106692,https://www.tripadvisor.com/Restaurant_Review-g580351-d5106692-Reviews-Le_Chalet_Restaurant-Chateau_d_Oex_Canton_of_Vaud.html
Restaurant Le Vieux Chalet,"place du Cret 20, Cresuz 1653 Switzerland",46.61792,7.14014,2,23231871,https://www.tripadvisor.com/Restaurant_Review-g1524616-d23231871-Reviews-Restaurant_Le_Vieux_Chalet-Cresuz_La_Gruyere_Canton_of_Fribourg.html
Restaurant des Remparts,"Main Place, Gruyeres 1663 Switzerland",46.583435,7.081056,2,1094922,https://www.tripadvisor.com/Restaurant_Review-g198820-d1094922-Reviews-Restaurant_des_Remparts-Gruyeres_La_Gruyere_Canton_of_Fribourg.html
Le Chalet de Gruyeres,"rue du Bourg 40, Gruyeres 1663 Switzerland",46.584064,7.082046,2,4149055,https://www.tripadvisor.com/Restaurant_Review-g198820-d4149055-Reviews-Le_Chalet_de_Gruyeres-Gruyeres_La_Gruyere_Canton_of_Fribourg.html
Gruyere Traditions,"rue du Bourg 20, Gruyeres 1663 Switzerland",46.58324,7.081074,2,2244373,https://www.tripadvisor.com/Restaurant_Review-g198820-d2244373-Reviews-Gruyere_Traditions-Gruyeres_La_Gruyere_Canton_of_Fribourg.html
Restaurant Hotel de Ville,"place de Hotel de Ville 1, La Tour-de-Treme 1635 Switzerland",46.60916,7.06467,2,12547491,https://www.tripadvisor.com/Restaurant_Review-g4277996-d12547491-Reviews-Restaurant_Hotel_de_Ville-La_Tour_de_Treme_Canton_of_Fribourg.html
Le Gruyerien,"Clos d'Amont 2, Morlon 1638 Switzerland",46.625988,7.085719,2,1025860,https://www.tripadvisor.com/Restaurant_Review-g1025659-d1025860-Reviews-Le_Gruyerien-Morlon_La_Gruyere_Canton_of_Fribourg.html
Goya Onda,"route du Lac 23, Morlon 1638 Switzerland",46.62635,7.09385,2,20920909,https://www.tripadvisor.com/Restaurant_Review-g1025659-d20920909-Reviews-Goya_Onda-Morlon_La_Gruyere_Canton_of_Fribourg.html
Cafe-Restaurant de la Chaudanne,"route de La Chaudanne 8, Rossiniere 1658 Switzerland",46.46565,7.09741,2,13164439,https://www.tripadvisor.com/Restaurant_Review-g1068944-d13164439-Reviews-Cafe_Restaurant_de_la_Chaudanne-Rossiniere_Canton_of_Vaud.html
Le Buro,"rue de la Sionge 29, Bulle 1630 Switzerland",46.61917,7.056647,2,4149667,https://www.tripadvisor.com/Restaurant_Review-g652156-d4149667-Reviews-Le_Buro-Bulle_La_Gruyere_Canton_of_Fribourg.html
Les Montagnards La brasserie,"Rue de Montsalvens 4, Broc 1636 Switzerland",46.60303,7.100235,2,17990943,https://www.tripadvisor.com/Restaurant_Review-g1140517-d17990943-Reviews-Les_Montagnards_La_brasserie-Broc_La_Gruyere_Canton_of_Fribourg.html
Restaurant des Montagnards,"route de la Poya 23 Auberge des Montagnards, Estavannens, Bas-Intyamon 1665 Switzerland",46.560314,7.102318,2,4313037,https://www.tripadvisor.com/Restaurant_Review-g4346331-d4313037-Reviews-Restaurant_des_Montagnards-Estavannens_Bas_Intyamon_Canton_of_Fribourg.html
L'Ecu Restaurant,"rue Saint-Denis 5, Bulle 1630 Switzerland",46.615276,7.057736,3,1081886,https://www.tripadvisor.com/Restaurant_Review-g652156-d1081886-Reviews-L_Ecu_Restaurant-Bulle_La_Gruyere_Canton_of_Fribourg.html
Les Halles 1787,"rue de la Promenade 44, Bulle 1630 Switzerland",46.619724,7.058606,3,3721628,https://www.tripadvisor.com/Restaurant_Review-g652156-d3721628-Reviews-Les_Halles_1787-Bulle_La_Gruyere_Canton_of_Fribourg.html
Gare a toi,"rue de la Lecheretta 1, Bulle 1630 Switzerland",46.61818,7.055442,3,12452100,https://www.tripadvisor.com/Restaurant_Review-g652156-d12452100-Reviews-Gare_a_toi-Bulle_La_Gruyere_Canton_of_Fribourg.html
le Bistrot du Parc,"Village d'Enhaut 25, Charmey 1637 Switzerland",46.61944,7.16648,3,4150718,https://www.tripadvisor.com/Restaurant_Review-g635662-d4150718-Reviews-Le_Bistrot_du_Parc-Charmey_La_Gruyere_Canton_of_Fribourg.html
Auberge La Couronne,"Route de l_Intyamon 36, Enney, Bas-Intyamon 1667 Switzerland",46.5657,7.08357,3,4313275,https://www.tripadvisor.com/Restaurant_Review-g20962667-d4313275-Reviews-Auberge_La_Couronne-Enney_Bas_Intyamon_Canton_of_Fribourg.html
Cafe Paradiso,"rue du Marche 21, Bulle 1630 Switzerland",46.619392,7.058482,3,14849314,https://www.tripadvisor.com/Restaurant_Review-g652156-d14849314-Reviews-Cafe_Paradiso-Bulle_La_Gruyere_Canton_of_Fribourg.html
Le Vanil Noir,"rue du Vanil-Noir 15, Grandvillard 1666 Switzerland",46.53929,7.08671,3,7024072,https://www.tripadvisor.com/Restaurant_Review-g4760568-d7024072-Reviews-Le_Vanil_Noir-Grandvillard_Canton_of_Fribourg.html
Restaurant Hotel de Ville,"place du Village 1, Rossiniere 1658 Switzerland",46.46726,7.08159,3,2100213,https://www.tripadvisor.com/Restaurant_Review-g1068944-d2100213-Reviews-Restaurant_Hotel_de_Ville-Rossiniere_Canton_of_Vaud.html
La Grange Aux Thurler Sarl,"route de l'Intyamon 135, Villars-sous-Mont, Bas-Intyamon 1666 Switzerland",46.538914,7.068586,3,15144484,https://www.tripadvisor.com/Restaurant_Review-g15288676-d15144484-Reviews-La_Grange_Aux_Thurler_Sarl-Villars_sous_Mont_Bas_Intyamon_Canton_of_Fribourg.html
Auberge de l'Ange,"route de l' Intyamon 103, Albeuve 1669 Switzerland",46.518406,7.056111,3,4457428,https://www.tripadvisor.com/Restaurant_Review-g1524614-d4457428-Reviews-Auberge_de_l_Ange-Albeuve_La_Gruyere_Canton_of_Fribourg.html
Cafe De la Promenade,"Rue de la Promenade 31 Grand-Rue, Bulle 1630 Switzerland",46.61924,7.05795,3,4150679,https://www.tripadvisor.com/Restaurant_Review-g652156-d4150679-Reviews-Cafe_De_la_Promenade-Bulle_La_Gruyere_Canton_of_Fribourg.html
Le Fribourgeois,"place des Alpes 12, Bulle 1630 Switzerland",46.61754,7.056549,3,1053275,https://www.tripadvisor.com/Restaurant_Review-g652156-d1053275-Reviews-Le_Fribourgeois-Bulle_La_Gruyere_Canton_of_Fribourg.html
Cafe de la Gare,"avenue de la Gare 6, Bulle 1630 Switzerland",46.61781,7.05545,3,2152080,https://www.tripadvisor.com/Restaurant_Review-g652156-d2152080-Reviews-Cafe_de_la_Gare-Bulle_La_Gruyere_Canton_of_Fribourg.html
L’Enclume,"Rue du Centre 33, Charmey 1637 Switzerland",46.618652,7.165473,3,14155888,https://www.tripadvisor.com/Restaurant_Review-g635662-d14155888-Reviews-L_Enclume-Charmey_La_Gruyere_Canton_of_Fribourg.html
Le Baron,"la Tzintre 23, Charmey 1637 Switzerland",46.612675,7.172444,3,11734265,https://www.tripadvisor.com/Restaurant_Review-g635662-d11734265-Reviews-Le_Baron-Charmey_La_Gruyere_Canton_of_Fribourg.html
La Croix d'Or,"Route de Gruyere 41 Les Moulins, Chateau-d'Oex 1660 Switzerland",46.45983,7.10701,3,13287136,https://www.tripadvisor.com/Restaurant_Review-g580351-d13287136-Reviews-La_Croix_d_Or-Chateau_d_Oex_Canton_of_Vaud.html
Restaurant Ermitage,"Grand Rue 4, Chateau-d'Oex 1660 Switzerland",46.471035,7.126939,3,8378693,https://www.tripadvisor.com/Restaurant_Review-g580351-d8378693-Reviews-Restaurant_Ermitage-Chateau_d_Oex_Canton_of_Vaud.html
Le Pic Vert,"chemin de la Fruitiere 5 1666 Grandvillard, Grandvillard 1666 Switzerland",46.54077,7.083669,3,3193637,https://www.tripadvisor.com/Restaurant_Review-g4760568-d3193637-Reviews-Le_Pic_Vert-Grandvillard_Canton_of_Fribourg.html
Auberge de la Halle,"rue du Bourg 24, Gruyeres 1663 Switzerland",46.583626,7.081461,3,1094920,https://www.tripadvisor.com/Restaurant_Review-g198820-d1094920-Reviews-Auberge_de_la_Halle-Gruyeres_La_Gruyere_Canton_of_Fribourg.html
Le Bonnet Rouge,"rue du Bourg 7, Gruyeres 1663 Switzerland",46.5833,7.080833,3,10479792,https://www.tripadvisor.com/Restaurant_Review-g198820-d10479792-Reviews-Le_Bonnet_Rouge-Gruyeres_La_Gruyere_Canton_of_Fribourg.html
Le Saint-Georges Restaurant,"rue du Bourg 22, Gruyeres 1663 Switzerland",46.58346,7.081419,3,10151321,https://www.tripadvisor.com/Restaurant_Review-g198820-d10151321-Reviews-Le_Saint_Georges_Restaurant-Gruyeres_La_Gruyere_Canton_of_Fribourg.html
Fondue Academy,"rue du Bourg 40, Gruyeres 1663 Switzerland",46.58403,7.08214,3,15053234,https://www.tripadvisor.com/Restaurant_Review-g198820-d15053234-Reviews-Fondue_Academy-Gruyeres_La_Gruyere_Canton_of_Fribourg.html
Restaurant Pinte du Pralet,"route du Motelon 2, La Gruyere 1637 Switzerland",46.61274,7.16734,3,11777281,https://www.tripadvisor.com/Restaurant_Review-g12700969-d11777281-Reviews-Restaurant_Pinte_du_Pralet-La_Gruyere_La_Gruyere_Canton_of_Fribourg.html
L' Auberge de la Couronne Sarl,"rue Monseigneur-Genoud 14, Lessoc 1669 Switzerland",46.504925,7.061052,3,21201140,https://www.tripadvisor.com/Restaurant_Review-g15288481-d21201140-Reviews-L_Auberge_de_la_Couronne_Sarl-Lessoc_Canton_of_Fribourg.html
Les Moilles,"Chemin de l'Evi, Neirivue 1669 Switzerland",46.527576,7.007747,3,10818875,https://www.tripadvisor.com/Restaurant_Review-g12520728-d10818875-Reviews-Les_Moilles-Neirivue_Canton_of_Fribourg.html
Auberge Lion d'Or,"route de l'Intyamon 64, Neirivue 1669 Switzerland",46.524845,7.058965,3,19283720,https://www.tripadvisor.com/Restaurant_Review-g12520728-d19283720-Reviews-Auberge_Lion_d_Or-Neirivue_Canton_of_Fribourg.html
Restaurant de La Maison du Gruyere,"place de la Gare 3, Pringy 1663 Switzerland",46.58239,7.072742,3,2085123,https://www.tripadvisor.com/Restaurant_Review-g4979686-d2085123-Reviews-Restaurant_de_La_Maison_du_Gruyere-Pringy_Canton_of_Fribourg.html
Brasserie du Relais,"place de la Gare 2, Pringy 1663 Switzerland",46.582527,7.073359,3,8035407,https://www.tripadvisor.com/Restaurant_Review-g4979686-d8035407-Reviews-Brasserie_du_Relais-Pringy_Canton_of_Fribourg.html
Le Cafe Valrose,"place de la Gare 2, Rougemont 1659 Switzerland",46.488556,7.208358,3,14994507,https://www.tripadvisor.com/Restaurant_Review-g1130644-d14994507-Reviews-Le_Cafe_Valrose-Rougemont_Canton_of_Vaud.html
Restaurant du Cerf,"rue des Allamans 8, Rougemont 1659 Switzerland",46.489723,7.210744,3,2287834,https://www.tripadvisor.com/Restaurant_Review-g1130644-d2287834-Reviews-Restaurant_du_Cerf-Rougemont_Canton_of_Vaud.html
Hotel de Ville,Gruyeres 1663 Switzerland,46.58353,7.081236,3,1225517,https://www.tripadvisor.com/Restaurant_Review-g198820-d1225517-Reviews-Hotel_de_Ville-Gruyeres_La_Gruyere_Canton_of_Fribourg.html
Buvette d'Alpage Les Mongerons,Gruyeres 1663 Switzerland,46.573242,7.057738,3,10777974,https://www.tripadvisor.com/Restaurant_Review-g198820-d10777974-Reviews-Buvette_d_Alpage_Les_Mongerons-Gruyeres_La_Gruyere_Canton_of_Fribourg.html
Restaurant Le Tonnelier,"Grand-rue 31, Bulle 1630 Switzerland",46.61912,7.05737,3,23963849,https://www.tripadvisor.com/Restaurant_Review-g652156-d23963849-Reviews-Restaurant_Le_Tonnelier-Bulle_La_Gruyere_Canton_of_Fribourg.html
